{
"type": "FeatureCollection",
"name": "optimal_sites",
"crs": { "type": "name", "properties": { "name": "urn:ogc:def:crs:OGC:1.3:CRS84" } },
"features": [
{ "type": "Feature", "properties": { "degree": 3, "AADT": 17204.0, "dist_to_road": 120.42257535480393, "GEOID": "11001000902", "median_income": null, "population": null, "demand_score": null }, "geometry": { "type": "Point", "coordinates": [ -77.114303513493084, 38.935613843710541 ] } },
{ "type": "Feature", "properties": { "degree": 3, "AADT": 12998.0, "dist_to_road": 125.86757274704462, "GEOID": "11001000902", "median_income": null, "population": null, "demand_score": null }, "geometry": { "type": "Point", "coordinates": [ -77.112884175344206, 38.935683719370303 ] } },
{ "type": "Feature", "properties": { "degree": 3, "AADT": 17204.0, "dist_to_road": 110.58215212436072, "GEOID": "11001000902", "median_income": null, "population": null, "demand_score": null }, "geometry": { "type": "Point", "coordinates": [ -77.112749428051586, 38.93365030952166 ] } },
{ "type": "Feature", "properties": { "degree": 3, "AADT": 12998.0, "dist_to_road": 0.41170452858656009, "GEOID": "11001000902", "median_income": null, "population": null, "demand_score": null }, "geometry": { "type": "Point", "coordinates": [ -77.112030775824266, 38.937381676738653 ] } },
{ "type": "Feature", "properties": { "degree": 3, "AADT": 30358.0, "dist_to_road": 0.34223082198209387, "GEOID": "11001000902", "median_income": null, "population": null, "demand_score": null }, "geometry": { "type": "Point", "coordinates": [ -77.111743314933364, 38.930240199255124 ] } },
{ "type": "Feature", "properties": { "degree": 4, "AADT": 12998.0, "dist_to_road": 127.63814371880703, "GEOID": "11001000902", "median_income": null, "population": null, "demand_score": null }, "geometry": { "type": "Point", "coordinates": [ -77.111743314933364, 38.93410451265477 ] } },
{ "type": "Feature", "properties": { "degree": 4, "AADT": 12998.0, "dist_to_road": 0.02736329579893514, "GEOID": "11001000904", "median_income": null, "population": null, "demand_score": null }, "geometry": { "type": "Point", "coordinates": [ -77.111590601335052, 38.935697694493996 ] } },
{ "type": "Feature", "properties": { "degree": 3, "AADT": 17204.0, "dist_to_road": 91.79686682158605, "GEOID": "11001000902", "median_income": null, "population": null, "demand_score": null }, "geometry": { "type": "Point", "coordinates": [ -77.111428904583917, 38.931162622306893 ] } },
{ "type": "Feature", "properties": { "degree": 3, "AADT": 12998.0, "dist_to_road": 0.11130111641650246, "GEOID": "11001000904", "median_income": null, "population": null, "demand_score": null }, "geometry": { "type": "Point", "coordinates": [ -77.110737201815155, 38.934530762179989 ] } },
{ "type": "Feature", "properties": { "degree": 3, "AADT": 30358.0, "dist_to_road": 84.7462715234835, "GEOID": "11001000902", "median_income": null, "population": null, "demand_score": null }, "geometry": { "type": "Point", "coordinates": [ -77.110665336592419, 38.929911757848231 ] } },
{ "type": "Feature", "properties": { "degree": 3, "AADT": 12998.0, "dist_to_road": 0.11174358911915107, "GEOID": "11001000904", "median_income": null, "population": null, "demand_score": null }, "geometry": { "type": "Point", "coordinates": [ -77.110629403981079, 38.934384020829313 ] } },
{ "type": "Feature", "properties": { "degree": 4, "AADT": 12998.0, "dist_to_road": 154.0060207562764, "GEOID": "11001000902", "median_income": null, "population": null, "demand_score": null }, "geometry": { "type": "Point", "coordinates": [ -77.110162280033322, 38.931924311087222 ] } },
{ "type": "Feature", "properties": { "degree": 3, "AADT": 30358.0, "dist_to_road": 198.40369721798899, "GEOID": "11001000902", "median_income": null, "population": null, "demand_score": null }, "geometry": { "type": "Point", "coordinates": [ -77.10982990337817, 38.930407913429519 ] } },
{ "type": "Feature", "properties": { "degree": 3, "AADT": 30358.0, "dist_to_road": 91.709928132611608, "GEOID": "11001000902", "median_income": null, "population": null, "demand_score": null }, "geometry": { "type": "Point", "coordinates": [ -77.109686172932726, 38.928311457747164 ] } },
{ "type": "Feature", "properties": { "degree": 4, "AADT": 12998.0, "dist_to_road": 165.41188045469769, "GEOID": "11001000902", "median_income": null, "population": null, "demand_score": null }, "geometry": { "type": "Point", "coordinates": [ -77.109084301692377, 38.93086912536436 ] } },
{ "type": "Feature", "properties": { "degree": 4, "AADT": 12998.0, "dist_to_road": 0.39295015148035473, "GEOID": "11001000904", "median_income": null, "population": null, "demand_score": null }, "geometry": { "type": "Point", "coordinates": [ -77.109084301692377, 38.932595149476938 ] } },
{ "type": "Feature", "properties": { "degree": 4, "AADT": 30358.0, "dist_to_road": 206.60348682828808, "GEOID": "11001000902", "median_income": null, "population": null, "demand_score": null }, "geometry": { "type": "Point", "coordinates": [ -77.108850739718505, 38.928821601000784 ] } },
{ "type": "Feature", "properties": { "degree": 3, "AADT": 30358.0, "dist_to_road": 73.699751557198937, "GEOID": "11001000902", "median_income": null, "population": null, "demand_score": null }, "geometry": { "type": "Point", "coordinates": [ -77.108814807107137, 38.926948728326906 ] } },
{ "type": "Feature", "properties": { "degree": 4, "AADT": 30358.0, "dist_to_road": 188.13275062563733, "GEOID": "11001000902", "median_income": null, "population": null, "demand_score": null }, "geometry": { "type": "Point", "coordinates": [ -77.108015306504271, 38.927451893007465 ] } },
{ "type": "Feature", "properties": { "degree": 4, "AADT": 12998.0, "dist_to_road": 0.051596113830090939, "GEOID": "11001000904", "median_income": null, "population": null, "demand_score": null }, "geometry": { "type": "Point", "coordinates": [ -77.107916491823019, 38.931588889512994 ] } },
{ "type": "Feature", "properties": { "degree": 4, "AADT": 12998.0, "dist_to_road": 107.79050208818039, "GEOID": "11001000902", "median_income": null, "population": null, "demand_score": null }, "geometry": { "type": "Point", "coordinates": [ -77.107664963543471, 38.929555362260693 ] } },
{ "type": "Feature", "properties": { "degree": 2, "AADT": 16892.0, "dist_to_road": 74.755931859939608, "GEOID": "11001000902", "median_income": null, "population": null, "demand_score": null }, "geometry": { "type": "Point", "coordinates": [ -77.107530216250822, 38.925865514472477 ] } },
{ "type": "Feature", "properties": { "degree": 3, "AADT": 16892.0, "dist_to_road": 212.11698379646671, "GEOID": "11001000902", "median_income": null, "population": null, "demand_score": null }, "geometry": { "type": "Point", "coordinates": [ -77.107440384722437, 38.927801310824741 ] } },
{ "type": "Feature", "properties": { "degree": 3, "AADT": 20103.0, "dist_to_road": 0.22791894739950297, "GEOID": "11001000902", "median_income": null, "population": null, "demand_score": null }, "geometry": { "type": "Point", "coordinates": [ -77.107125974372991, 38.924803249984699 ] } },
{ "type": "Feature", "properties": { "degree": 3, "AADT": 12998.0, "dist_to_road": 0.3401674394948207, "GEOID": "11001000902", "median_income": null, "population": null, "demand_score": null }, "geometry": { "type": "Point", "coordinates": [ -77.106928345010488, 38.930268151645059 ] } },
{ "type": "Feature", "properties": { "degree": 3, "AADT": 12998.0, "dist_to_road": 0.013402388931793054, "GEOID": "11001000902", "median_income": null, "population": null, "demand_score": null }, "geometry": { "type": "Point", "coordinates": [ -77.106874446093428, 38.930044532217124 ] } },
{ "type": "Feature", "properties": { "degree": 4, "AADT": 16892.0, "dist_to_road": 0.044962456105883251, "GEOID": "11001000902", "median_income": null, "population": null, "demand_score": null }, "geometry": { "type": "Point", "coordinates": [ -77.106703766189455, 38.926361698355514 ] } },
{ "type": "Feature", "properties": { "degree": 3, "AADT": 12998.0, "dist_to_road": 163.26272859688513, "GEOID": "11001000904", "median_income": null, "population": null, "demand_score": null }, "geometry": { "type": "Point", "coordinates": [ -77.106694783036616, 38.932245755274046 ] } },
{ "type": "Feature", "properties": { "degree": 4, "AADT": 12998.0, "dist_to_road": 118.15336730263857, "GEOID": "11001000902", "median_income": null, "population": null, "demand_score": null }, "geometry": { "type": "Point", "coordinates": [ -77.106542069438319, 38.928360375752426 ] } },
{ "type": "Feature", "properties": { "degree": 3, "AADT": 5914.0, "dist_to_road": 0.24922944906220521, "GEOID": "11001000904", "median_income": null, "population": null, "demand_score": null }, "geometry": { "type": "Point", "coordinates": [ -77.106479187368407, 38.935746607405228 ] } },
{ "type": "Feature", "properties": { "degree": 3, "AADT": 16892.0, "dist_to_road": 0.044692054777340028, "GEOID": "11001000902", "median_income": null, "population": null, "demand_score": null }, "geometry": { "type": "Point", "coordinates": [ -77.106299524311595, 38.92661328322378 ] } },
{ "type": "Feature", "properties": { "degree": 4, "AADT": 5914.0, "dist_to_road": 255.0412237010236, "GEOID": "11001000904", "median_income": null, "population": null, "demand_score": null }, "geometry": { "type": "Point", "coordinates": [ -77.106128844407621, 38.93396475815441 ] } },
{ "type": "Feature", "properties": { "degree": 3, "AADT": 5914.0, "dist_to_road": 192.04827188576485, "GEOID": "11001000904", "median_income": null, "population": null, "demand_score": null }, "geometry": { "type": "Point", "coordinates": [ -77.106074945490576, 38.934404983897998 ] } },
{ "type": "Feature", "properties": { "degree": 4, "AADT": 5914.0, "dist_to_road": 120.05649138473692, "GEOID": "11001000904", "median_income": null, "population": null, "demand_score": null }, "geometry": { "type": "Point", "coordinates": [ -77.106012063420707, 38.934908095687511 ] } },
{ "type": "Feature", "properties": { "degree": 3, "AADT": 5914.0, "dist_to_road": 0.044198702329247525, "GEOID": "11001000904", "median_income": null, "population": null, "demand_score": null }, "geometry": { "type": "Point", "coordinates": [ -77.105913248739412, 38.935746607405228 ] } },
{ "type": "Feature", "properties": { "degree": 3, "AADT": 12998.0, "dist_to_road": 0.50502032926650597, "GEOID": "11001000904", "median_income": null, "population": null, "demand_score": null }, "geometry": { "type": "Point", "coordinates": [ -77.105715619376923, 38.928884495120485 ] } },
{ "type": "Feature", "properties": { "degree": 4, "AADT": 12998.0, "dist_to_road": 144.27956900021883, "GEOID": "11001000904", "median_income": null, "population": null, "demand_score": null }, "geometry": { "type": "Point", "coordinates": [ -77.105562905778626, 38.930289115930293 ] } },
{ "type": "Feature", "properties": { "degree": 4, "AADT": 16892.0, "dist_to_road": 0.28512114851605436, "GEOID": "11001000902", "median_income": null, "population": null, "demand_score": null }, "geometry": { "type": "Point", "coordinates": [ -77.105293411193372, 38.927123438689897 ] } },
{ "type": "Feature", "properties": { "degree": 3, "AADT": 12998.0, "dist_to_road": 267.85825705800124, "GEOID": "11001000904", "median_income": null, "population": null, "demand_score": null }, "geometry": { "type": "Point", "coordinates": [ -77.104987983996793, 38.931707684835274 ] } },
{ "type": "Feature", "properties": { "degree": 3, "AADT": 12998.0, "dist_to_road": 0.025891645325342171, "GEOID": "11001000904", "median_income": null, "population": null, "demand_score": null }, "geometry": { "type": "Point", "coordinates": [ -77.104961034538263, 38.928199645037004 ] } },
{ "type": "Feature", "properties": { "degree": 3, "AADT": 5914.0, "dist_to_road": 219.07367759227748, "GEOID": "11001000904", "median_income": null, "population": null, "demand_score": null }, "geometry": { "type": "Point", "coordinates": [ -77.104808320939966, 38.934216316056784 ] } },
{ "type": "Feature", "properties": { "degree": 3, "AADT": 5914.0, "dist_to_road": 345.04438730502301, "GEOID": "11001000904", "median_income": null, "population": null, "demand_score": null }, "geometry": { "type": "Point", "coordinates": [ -77.104655607341641, 38.933335859494726 ] } },
{ "type": "Feature", "properties": { "degree": 3, "AADT": 5914.0, "dist_to_road": 143.08609783191181, "GEOID": "11001000904", "median_income": null, "population": null, "demand_score": null }, "geometry": { "type": "Point", "coordinates": [ -77.104368146450753, 38.93474737980938 ] } },
{ "type": "Feature", "properties": { "degree": 4, "AADT": 11969.0, "dist_to_road": 0.16698793201862583, "GEOID": "11001000904", "median_income": null, "population": null, "demand_score": null }, "geometry": { "type": "Point", "coordinates": [ -77.104035769795615, 38.927368032475222 ] } },
{ "type": "Feature", "properties": { "degree": 3, "AADT": 1615.0, "dist_to_road": 0.24110190046338745, "GEOID": "11001000904", "median_income": null, "population": null, "demand_score": null }, "geometry": { "type": "Point", "coordinates": [ -77.104035769795615, 38.938918887027206 ] } },
{ "type": "Feature", "properties": { "degree": 3, "AADT": 5914.0, "dist_to_road": 296.16853487587747, "GEOID": "11001000904", "median_income": null, "population": null, "demand_score": null }, "geometry": { "type": "Point", "coordinates": [ -77.103865089891642, 38.933678260567689 ] } },
{ "type": "Feature", "properties": { "degree": 3, "AADT": 12998.0, "dist_to_road": 128.51084580012855, "GEOID": "11001000902", "median_income": null, "population": null, "demand_score": null }, "geometry": { "type": "Point", "coordinates": [ -77.103721359446183, 38.925704778104176 ] } },
{ "type": "Feature", "properties": { "degree": 3, "AADT": 5914.0, "dist_to_road": 0.29386955306893014, "GEOID": "11001000904", "median_income": null, "population": null, "demand_score": null }, "geometry": { "type": "Point", "coordinates": [ -77.103559662695019, 38.935746607405228 ] } },
{ "type": "Feature", "properties": { "degree": 3, "AADT": 11872.0, "dist_to_road": 0.34573582004627695, "GEOID": "11001000904", "median_income": null, "population": null, "demand_score": null }, "geometry": { "type": "Point", "coordinates": [ -77.10346983116662, 38.94544467237796 ] } },
{ "type": "Feature", "properties": { "degree": 3, "AADT": 1615.0, "dist_to_road": 128.15341663243581, "GEOID": "11001000904", "median_income": null, "population": null, "demand_score": null }, "geometry": { "type": "Point", "coordinates": [ -77.103209319734233, 38.937137117483921 ] } }
]
}
