{
"type": "FeatureCollection",
"name": "optimal_sites_dgal",
"crs": { "type": "name", "properties": { "name": "urn:ogc:def:crs:EPSG::3857" } },
"features": [
{ "type": "Feature", "properties": { "degree": 3, "GEOID": "11001010602", "population": 6682.0, "median_income": 2931.0, "demand_score": 2.4080268663889082 }, "geometry": { "type": "Point", "coordinates": [ -8571174.0, 4707988.0 ] } },
{ "type": "Feature", "properties": { "degree": 3, "GEOID": "11001002802", "population": 5415.0, "median_income": 2777.0, "demand_score": 2.1719321688049562 }, "geometry": { "type": "Point", "coordinates": [ -8575659.0, 4711735.0 ] } },
{ "type": "Feature", "properties": { "degree": 4, "GEOID": "11001007703", "population": 6923.0, "median_income": 2340.0, "demand_score": 2.1515220923179887 }, "geometry": { "type": "Point", "coordinates": [ -8566273.0, 4705760.0 ] } },
{ "type": "Feature", "properties": { "degree": 4, "GEOID": "11001002101", "population": 6019.0, "median_income": 2458.0, "demand_score": 2.1481412951129513 }, "geometry": { "type": "Point", "coordinates": [ -8574287.999999998137355, 4715724.999999999068677 ] } },
{ "type": "Feature", "properties": { "degree": 3, "GEOID": "11001000300", "population": 5979.0, "median_income": 2471.0, "demand_score": 2.1468582578623834 }, "geometry": { "type": "Point", "coordinates": [ -8580065.0, 4710317.0 ] } },
{ "type": "Feature", "properties": { "degree": 4, "GEOID": "11001001200", "population": 4919.0, "median_income": 2519.0, "demand_score": 2.0119376612992559 }, "geometry": { "type": "Point", "coordinates": [ -8579906.0, 4713765.999999999068677 ] } },
{ "type": "Feature", "properties": { "degree": 4, "GEOID": "11001002702", "population": 5568.0, "median_income": 2294.0, "demand_score": 1.9956907357286888 }, "geometry": { "type": "Point", "coordinates": [ -8576520.000000001862645, 4712040.0 ] } },
{ "type": "Feature", "properties": { "degree": 2, "GEOID": "11001001304", "population": 4172.0, "median_income": 2796.0, "demand_score": 1.9851813472876236 }, "geometry": { "type": "Point", "coordinates": [ -8577473.000000001862645, 4713037.999999999068677 ] } },
{ "type": "Feature", "properties": { "degree": 3, "GEOID": "11001001500", "population": 5804.0, "median_income": 2005.0, "demand_score": 1.9638943816120988 }, "geometry": { "type": "Point", "coordinates": [ -8577757.999999998137355, 4718018.000000000931323 ] } },
{ "type": "Feature", "properties": { "degree": 3, "GEOID": "11001007601", "population": 5226.0, "median_income": 2136.0, "demand_score": 1.912300349057519 }, "geometry": { "type": "Point", "coordinates": [ -8569030.0, 4703897.0 ] } },
{ "type": "Feature", "properties": { "degree": 3, "GEOID": "11001009602", "population": 5144.0, "median_income": 2228.0, "demand_score": 1.9092835135885573 }, "geometry": { "type": "Point", "coordinates": [ -8566375.0, 4707372.0 ] } },
{ "type": "Feature", "properties": { "degree": 2, "GEOID": "11001010400", "population": 4725.0, "median_income": 2288.0, "demand_score": 1.9052126543614043 }, "geometry": { "type": "Point", "coordinates": [ -8571012.0, 4699577.0 ] } },
{ "type": "Feature", "properties": { "degree": 4, "GEOID": "11001001804", "population": 5166.0, "median_income": 2088.0, "demand_score": 1.8998429053390486 }, "geometry": { "type": "Point", "coordinates": [ -8574686.000000001862645, 4716654.0 ] } },
{ "type": "Feature", "properties": { "degree": 3, "GEOID": "11001002102", "population": 4768.0, "median_income": 2254.0, "demand_score": 1.8950735512184562 }, "geometry": { "type": "Point", "coordinates": [ -8573291.0, 4715610.0 ] } },
{ "type": "Feature", "properties": { "degree": 4, "GEOID": "11001004001", "population": 4250.0, "median_income": 2439.0, "demand_score": 1.8644352717901755 }, "geometry": { "type": "Point", "coordinates": [ -8576804.0, 4709757.0 ] } },
{ "type": "Feature", "properties": { "degree": 3, "GEOID": "11001011100", "population": 5308.0, "median_income": 1927.0, "demand_score": 1.8632443119424293 }, "geometry": { "type": "Point", "coordinates": [ -8568996.0, 4710252.999999999068677 ] } },
{ "type": "Feature", "properties": { "degree": 3, "GEOID": "11001000600", "population": 4548.0, "median_income": 2206.0, "demand_score": 1.8509526461705614 }, "geometry": { "type": "Point", "coordinates": [ -8579369.0, 4711889.999999999068677 ] } },
{ "type": "Feature", "properties": { "degree": 3, "GEOID": "11001001100", "population": 4727.0, "median_income": 2109.0, "demand_score": 1.8440784071737228 }, "geometry": { "type": "Point", "coordinates": [ -8580181.0, 4714262.0 ] } },
{ "type": "Feature", "properties": { "degree": 4, "GEOID": "11001003600", "population": 4630.0, "median_income": 2152.0, "demand_score": 1.842491416356999 }, "geometry": { "type": "Point", "coordinates": [ -8574905.0, 4710290.999999999068677 ] } },
{ "type": "Feature", "properties": { "degree": 3, "GEOID": "11001007304", "population": 4927.0, "median_income": 2027.0, "demand_score": 1.8416954868469904 }, "geometry": { "type": "Point", "coordinates": [ -8569661.0, 4699012.000000000931323 ] } },
{ "type": "Feature", "properties": { "degree": 4, "GEOID": "11001007803", "population": 4491.0, "median_income": 2357.0, "demand_score": 1.8312889009092568 }, "geometry": { "type": "Point", "coordinates": [ -8565942.0, 4706663.000000000931323 ] } },
{ "type": "Feature", "properties": { "degree": 3, "GEOID": "11001009510", "population": 4918.0, "median_income": 1913.0, "demand_score": 1.7939448515176384 }, "geometry": { "type": "Point", "coordinates": [ -8572089.0, 4713188.0 ] } },
{ "type": "Feature", "properties": { "degree": 3, "GEOID": "11001007502", "population": 5073.0, "median_income": 1818.0, "demand_score": 1.7908942396691483 }, "geometry": { "type": "Point", "coordinates": [ -8568483.999999998137355, 4701662.999999999068677 ] } },
{ "type": "Feature", "properties": { "degree": 3, "GEOID": "11001009102", "population": 4753.0, "median_income": 1937.0, "demand_score": 1.7877160680807938 }, "geometry": { "type": "Point", "coordinates": [ -8570249.999999998137355, 4710373.999999999068677 ] } },
{ "type": "Feature", "properties": { "degree": 3, "GEOID": "11001005004", "population": 3891.0, "median_income": 2260.0, "demand_score": 1.7747790042061167 }, "geometry": { "type": "Point", "coordinates": [ -8574819.0, 4708737.999999999068677 ] } },
{ "type": "Feature", "properties": { "degree": 4, "GEOID": "11001009400", "population": 4889.0, "median_income": 1807.0, "demand_score": 1.7600815559732146 }, "geometry": { "type": "Point", "coordinates": [ -8569187.0, 4713490.999999999068677 ] } },
{ "type": "Feature", "properties": { "degree": 3, "GEOID": "11001008802", "population": 4607.0, "median_income": 1891.0, "demand_score": 1.7466391537843662 }, "geometry": { "type": "Point", "coordinates": [ -8570657.0, 4707833.0 ] } },
{ "type": "Feature", "properties": { "degree": 3, "GEOID": "11001009000", "population": 3637.0, "median_income": 2289.0, "demand_score": 1.7450438655459142 }, "geometry": { "type": "Point", "coordinates": [ -8566890.0, 4710635.999999999068677 ] } },
{ "type": "Feature", "properties": { "degree": 3, "GEOID": "11001001303", "population": 3580.0, "median_income": 2279.0, "demand_score": 1.7326362559662654 }, "geometry": { "type": "Point", "coordinates": [ -8578128.0, 4713376.0 ] } },
{ "type": "Feature", "properties": { "degree": 4, "GEOID": "11001006700", "population": 4058.0, "median_income": 2067.0, "demand_score": 1.7324311513547619 }, "geometry": { "type": "Point", "coordinates": [ -8570782.0, 4705583.999999999068677 ] } },
{ "type": "Feature", "properties": { "degree": 3, "GEOID": "11001001301", "population": 4041.0, "median_income": 2080.0, "demand_score": 1.7298976409209148 }, "geometry": { "type": "Point", "coordinates": [ -8578856.0, 4714617.0 ] } },
{ "type": "Feature", "properties": { "degree": 3, "GEOID": "11001000501", "population": 3594.0, "median_income": 2183.0, "demand_score": 1.7035102633385661 }, "geometry": { "type": "Point", "coordinates": [ -8577691.999999998137355, 4711514.0 ] } },
{ "type": "Feature", "properties": { "degree": 4, "GEOID": "11001007901", "population": 4505.0, "median_income": 1728.0, "demand_score": 1.6803151487679076 }, "geometry": { "type": "Point", "coordinates": [ -8569070.0, 4706401.0 ] } },
{ "type": "Feature", "properties": { "degree": 4, "GEOID": "11001007603", "population": 3619.0, "median_income": 2107.0, "demand_score": 1.6799925039068362 }, "geometry": { "type": "Point", "coordinates": [ -8567776.999999998137355, 4701251.999999999068677 ] } },
{ "type": "Feature", "properties": { "degree": 4, "GEOID": "11001009505", "population": 4286.0, "median_income": 1820.0, "demand_score": 1.6795624571440038 }, "geometry": { "type": "Point", "coordinates": [ -8571498.0, 4716075.0 ] } },
{ "type": "Feature", "properties": { "degree": 3, "GEOID": "11001001901", "population": 4628.0, "median_income": 1654.0, "demand_score": 1.6742878604469769 }, "geometry": { "type": "Point", "coordinates": [ -8574199.0, 4716484.000000000931323 ] } },
{ "type": "Feature", "properties": { "degree": 3, "GEOID": "11001002900", "population": 4576.0, "median_income": 1672.0, "demand_score": 1.6729577978564365 }, "geometry": { "type": "Point", "coordinates": [ -8574682.0, 4711940.0 ] } },
{ "type": "Feature", "properties": { "degree": 3, "GEOID": "11001009603", "population": 4025.0, "median_income": 1992.0, "demand_score": 1.6694610669580352 }, "geometry": { "type": "Point", "coordinates": [ -8566356.0, 4706348.0 ] } },
{ "type": "Feature", "properties": { "degree": 4, "GEOID": "11001001600", "population": 4477.0, "median_income": 1645.0, "demand_score": 1.6477215221507686 }, "geometry": { "type": "Point", "coordinates": [ -8575193.0, 4718621.0 ] } },
{ "type": "Feature", "properties": { "degree": 3, "GEOID": "11001007605", "population": 3779.0, "median_income": 1926.0, "demand_score": 1.6320710345254539 }, "geometry": { "type": "Point", "coordinates": [ -8568348.999999998137355, 4702245.0 ] } },
{ "type": "Feature", "properties": { "degree": 4, "GEOID": "11001001002", "population": 3438.0, "median_income": 2032.0, "demand_score": 1.6310764773490307 }, "geometry": { "type": "Point", "coordinates": [ -8580061.0, 4712707.0 ] } },
{ "type": "Feature", "properties": { "degree": 4, "GEOID": "11001008702", "population": 3430.0, "median_income": 2021.0, "demand_score": 1.626685202643138 }, "geometry": { "type": "Point", "coordinates": [ -8571665.000000001862645, 4709594.999999999068677 ] } },
{ "type": "Feature", "properties": { "degree": 3, "GEOID": "11001009508", "population": 3908.0, "median_income": 1827.0, "demand_score": 1.6259896377112042 }, "geometry": { "type": "Point", "coordinates": [ -8572466.0, 4715007.0 ] } },
{ "type": "Feature", "properties": { "degree": 4, "GEOID": "11001001803", "population": 4218.0, "median_income": 1681.0, "demand_score": 1.622765729979003 }, "geometry": { "type": "Point", "coordinates": [ -8575321.0, 4716924.999999999068677 ] } },
{ "type": "Feature", "properties": { "degree": 4, "GEOID": "11001000202", "population": 3919.0, "median_income": 1802.0, "demand_score": 1.6218705868684797 }, "geometry": { "type": "Point", "coordinates": [ -8579309.0, 4709172.0 ] } },
{ "type": "Feature", "properties": { "degree": 4, "GEOID": "11001010300", "population": 4196.0, "median_income": 1611.0, "demand_score": 1.5972568580067534 }, "geometry": { "type": "Point", "coordinates": [ -8574608.999999998137355, 4717712.999999999068677 ] } },
{ "type": "Feature", "properties": { "degree": 3, "GEOID": "11001002801", "population": 3818.0, "median_income": 1781.0, "demand_score": 1.5971656930508009 }, "geometry": { "type": "Point", "coordinates": [ -8575245.0, 4712304.0 ] } },
{ "type": "Feature", "properties": { "degree": 4, "GEOID": "11001002002", "population": 4392.0, "median_income": 1527.0, "demand_score": 1.5968292726342375 }, "geometry": { "type": "Point", "coordinates": [ -8575443.0, 4714263.999999999068677 ] } },
{ "type": "Feature", "properties": { "degree": 3, "GEOID": "11001007409", "population": 3718.0, "median_income": 1815.0, "demand_score": 1.5955447593409877 }, "geometry": { "type": "Point", "coordinates": [ -8569009.000000001862645, 4699597.0 ] } },
{ "type": "Feature", "properties": { "degree": 4, "GEOID": "11001003802", "population": 3372.0, "median_income": 2029.0, "demand_score": 1.595369582769955 }, "geometry": { "type": "Point", "coordinates": [ -8575929.999999998137355, 4710413.0 ] } }
]
}
